STARLINK-2278           
1 48026U 21024BB  22328.49142107 -.00000999  00000+0 -48177-4 0  9993
2 48026  53.0564 329.0078 0001378  68.0963 292.0172 15.06400650 93456
STARLINK-2300           
1 48027U 21024BC  22328.38499776  .00000574  00000+0  57432-4 0  9990
2 48027  53.0559 304.4810 0001709  58.1187 301.9968 15.06390653 93788
STARLINK-2264           
1 48028U 21024BD  22329.03238759  .00001479  00000+0  11823-3 0  9994
2 48028  53.0547 256.9841 0001933  43.9737 316.1406 15.06392840 94037
STARLINK-2299           
1 48029U 21024BE  22328.88812558  .00003456  00000+0  25077-3 0  9995
2 48029  53.0535 322.2190 0001927  57.5194 302.5981 15.06402768 93644
STARLINK-2268           
1 48030U 21024BF  22329.18069062  .00001508  00000+0  12013-3 0  9997
2 48030  53.0554 325.9228 0001998  43.5347 316.5799 15.06400645 93084
STARLINK-2267           
1 48031U 21024BG  22328.95356760  .00001394  00000+0  11249-3 0  9999
2 48031  53.0547 211.9392 0001615  61.2423 298.8728 15.06396533 94660
STARLINK-2286           
1 48033U 21024BJ  22329.14245351  .00001680  00000+0  13169-3 0  9997
2 48033  53.0555 321.0979 0001777  65.4374 294.6800 15.06400197 93155
STARLINK-2288           
1 48034U 21024BK  22328.69645501  .00001609  00000+0  12687-3 0  9993
2 48034  53.0555 323.0986 0001783  56.4572 303.6587 15.06403446 93617
STARLINK-2295           
1 48036U 21024BM  22328.70382947  .00002317  00000+0  17439-3 0  9996
2 48036  53.0553 323.0663 0001835  54.4842 305.6317 15.06406815 93611
BCCSAT-1                
1 48041U 21022AK  22328.71192224  .00006421  00000+0  38220-3 0  9999
2 48041  97.5158 226.0805 0013051 311.9237  48.0880 15.11500811 91026
ONEWEB-0115             
1 48042U 21025A   22328.74770278  .00000059  00000+0  12696-3 0  9997
2 48042  87.9057 218.5954 0001449  83.7042 276.4252 13.13469789 82887
ONEWEB-0152             
1 48043U 21025B   22328.76039580  .00000296  00000+0  77534-3 0  9999
2 48043  87.9090 218.5818 0001645  82.5410 277.5906 13.13471514 82841
ONEWEB-0153             
1 48044U 21025C   22329.19418605 -.00000213  00000+0 -61923-3 0  9993
2 48044  87.9056 218.4839 0001682  76.4078 283.7238 13.13471703 82903
ONEWEB-0154             
1 48045U 21025D   22328.73500602 -.00000265  00000+0 -76020-3 0  9993
2 48045  87.9005 218.6238 0001641  77.7944 282.3369 13.13470271 82802
ONEWEB-0116             
1 48046U 21025E   22328.92968915  .00000258  00000+0  67138-3 0  9990
2 48046  87.9022 218.5780 0001256  82.1353 277.9919 13.13466000 82962
ONEWEB-0150             
1 48047U 21025F   22328.74980592  .00000146  00000+0  36489-3 0  9997
2 48047  87.9051 218.5908 0001747  67.5959 292.5355 13.13472938 82831
ONEWEB-0107             
1 48048U 21025G   22328.75192408  .00000092  00000+0  21742-3 0  9996
2 48048  87.9050 218.5896 0001989  68.1295 292.0045 13.13472723 82816
ONEWEB-0101             
1 48049U 21025H   22329.17303748  .00000215  00000+0  55494-3 0  9993
2 48049  87.9053 218.5104 0001882  75.0328 285.1009 13.13468049 82840
ONEWEB-0113             
1 48050U 21025J   22328.76885845  .00000373  00000+0  98692-3 0  9994
2 48050  87.9059 218.6228 0001477  84.5595 275.5702 13.13472333 82874
ONEWEB-0112             
1 48051U 21025K   22328.75617306  .00000257  00000+0  66897-3 0  9992
2 48051  87.9050 218.5875 0001545  75.0015 285.1285 13.13471259 82892
ONEWEB-0156             
1 48052U 21025L   22328.91909954  .00000426  00000+0  11325-2 0  9997
2 48052  87.9057 218.5754 0001580  74.9861 285.1443 13.13472144 82881
ONEWEB-0161             
1 48053U 21025M   22328.73922750 -.00000132  00000+0 -39741-3 0  9996
2 48053  87.9056 218.5931 0001788  78.4683 281.6647 13.13472748 82808
ONEWEB-0158             
1 48054U 21025N   22328.77943802  .00000236  00000+0  61238-3 0  9991
2 48054  87.9057 218.6105 0001287  87.9897 272.1380 13.13468520 82925
ONEWEB-0157             
1 48055U 21025P   22328.72653579 -.00000694  00000+0 -19347-2 0  9999
2 48055  87.9081 218.5724 0001808  68.8469 291.2853 13.13470200 82869
ONEWEB-0162             
1 48056U 21025Q   22328.76462829  .00000405  00000+0  10740-2 0  9996
2 48056  87.9052 218.5854 0001542  73.5637 286.5662 13.13471996 82832
ONEWEB-0155             
1 48057U 21025R   22328.70960047  .00000021  00000+0  21676-4 0  9992
2 48057  87.9136 218.5664 0001661  77.5322 282.5992 13.13467252 82968
ONEWEB-0149             
1 48058U 21025S   22328.73074949 -.00000194  00000+0 -56503-3 0  9992
2 48058  87.9054 218.5935 0001461  57.9857 302.1414 13.13467752 82774
ONEWEB-0148             
1 48059U 21025T   22328.77097384  .00000356  00000+0  94130-3 0  9991
2 48059  87.9055 218.5899 0001838  47.2014 312.9269 13.13466971 82904
ONEWEB-0160             
1 48060U 21025U   22328.78788757 -.00000035  00000+0 -12967-3 0  9999
2 48060  87.9055 218.5854 0000912 125.8512 234.2702 13.13467760 82854
ONEWEB-0163             
1 48061U 21025V   22328.92543904  .00000081  00000+0  18759-3 0  9993
2 48061  87.8992 218.5817 0001976  71.5633 288.5711 13.13472644 82999
ONEWEB-0159             
1 48062U 21025W   22328.76249499  .00000381  00000+0  10096-2 0  9996
2 48062  87.9059 218.5939 0001988  63.3113 296.8219 13.13472523 82895
ONEWEB-0164             
1 48063U 21025X   22328.74346774 -.00000015  00000+0 -76048-4 0  9996
2 48063  87.8966 218.6271 0001751  85.8899 274.2430 13.13468718 82885
ONEWEB-0167             
1 48064U 21025Y   22329.15503483 -.00004328  00000+0 -11889-1 0  9995
2 48064  87.9082 218.4891 0001982  66.3989 293.7348 13.13492811 82911
ONEWEB-0166             
1 48065U 21025Z   22329.17725853 -.00000159  00000+0 -47160-3 0  9996
2 48065  87.9051 218.5046 0001640  65.5380 294.5920 13.13468212 82999
ONEWEB-0151             
1 48066U 21025AA  22329.17935756 -.00000520  00000+0 -14582-2 0  9995
2 48066  87.9054 218.5041 0001725  86.4428 273.6898 13.13468451 82949
ONEWEB-0170             
1 48067U 21025AB  22329.10953810 -.00000204  00000+0 -59437-3 0  9998
2 48067  87.8994 218.5570 0001690 107.8719 252.2594 13.13468677 82880
ONEWEB-0168             
1 48068U 21025AC  22328.71384814 -.00000135  00000+0 -40357-3 0  9991
2 48068  87.9059 218.6272 0001665  71.6511 288.4799 13.13467970 82843
ONEWEB-0173             
1 48069U 21025AD  22328.78365271  .00000171  00000+0  43459-3 0  9999
2 48069  87.9059 218.6248 0002209  79.2660 280.8718 13.13472249 83091
ONEWEB-0171             
1 48070U 21025AE  22328.74133214 -.00000142  00000+0 -42443-3 0  9999
2 48070  87.9058 218.5919 0001675  69.3905 290.7404 13.13467086 82908
ONEWEB-0172             
1 48071U 21025AF  22328.72336507 -.00000293  00000+0 -83818-3 0  9996
2 48071  87.9016 218.6226 0001964  82.8266 277.3086 13.13465253 83795
ONEWEB-0174             
1 48072U 21025AG  22328.70536527  .00000136  00000+0  33796-3 0  9993
2 48072  87.9046 218.6164 0001552  47.8387 312.2874 13.13472459 83114
ONEWEB-0175             
1 48073U 21025AH  22328.73289144 -.00000255  00000+0 -73420-3 0  9999
2 48073  87.9123 218.5863 0001764  95.7652 264.3679 13.13470027 82778
ONEWEB-0177             
1 48074U 21025AJ  22328.74557959 -.00000024  00000+0 -99341-4 0  9998
2 48074  87.9005 218.6178 0002280  69.9734 290.1640 13.13472710 82963
ONEWEB-0178             
1 48075U 21025AK  22328.76354958  .00000377  00000+0  99725-3 0  9999
2 48075  87.9054 218.5880 0001871  70.2475 289.8855 13.13472587 83011
ONEWEB-0108             
1 48076U 21025AL  22329.18148918 -.00000200  00000+0 -58321-3 0  9998
2 48076  87.9053 218.5034 0001354  72.3813 287.7464 13.13470933 83002
ONEWEB-0169             
1 48077U 21025AM  22328.75405678  .00000261  00000+0  68086-3 0  9994
2 48077  87.8986 218.6187 0001347  62.9483 297.1783 13.13466398 81598
GAOFEN 12-2             
1 48079U 21026A   22329.11125508  .00000332  00000+0  50360-4 0  9995
2 48079  97.9066 317.2700 0001504  86.1235 274.0147 14.80292557 89399
FEES                    
1 48082U 21022AL  22329.18992530  .00009249  00000+0  51014-3 0  9991
2 48082  97.5163 227.2987 0012178 309.0857  50.9291 15.14127626 90878
BEESAT-5                
1 48083U 21022AM  22327.26456865  .00009344  00000+0  55343-3 0  9990
2 48083  97.5117 223.8650 0018228 327.7848 159.7663 15.11482730 90896
BEESAT-7                
1 48084U 21022AN  22327.80229932  .00008320  00000+0  49655-3 0  9996
2 48084  97.5086 224.3836 0019038 326.8237 106.4126 15.11229036 90561
BEESAT-8                
1 48085U 21022AP  22327.95335738  .00005449  00000+0  33172-3 0  9991
2 48085  97.5095 224.4881 0019022 326.3165  90.8314 15.10671021 91145
STARLINK-2048           
1 48092U 21027A   22328.64258551 -.00000221  00000+0  40303-5 0  9998
2 48092  53.0542  88.6133 0001299  81.0280 279.0856 15.06395860 92431
STARLINK-2404           
1 48093U 21027B   22328.80430136 -.00000713  00000+0 -28961-4 0  9990
2 48093  53.0551 152.8151 0001734  67.5702 292.5470 15.06392834 91550
STARLINK-2412           
1 48094U 21027C   22328.82177377  .00002379  00000+0  17854-3 0  9994
2 48094  53.0542 162.5352 0001689  74.6468 285.4707 15.06407389 91421
STARLINK-2414           
1 48095U 21027D   22328.96184101  .00000760  00000+0  69960-4 0  9991
2 48095  53.0539 161.8911 0001895  54.6766 305.4400 15.06398148 91042
STARLINK-2417           
1 48096U 21027E   22328.80335033  .00000934  00000+0  81569-4 0  9999
2 48096  53.0543 162.6052 0001603  71.5229 288.5934 15.06397663 91417
STARLINK-2418           
1 48097U 21027F   22329.18116506 -.00000621  00000+0 -22826-4 0  9990
2 48097  53.0550 140.9259 0001390  78.3582 281.7563 15.06390932 91352
STARLINK-2421           
1 48098U 21027G   22328.95907996  .00000416  00000+0  46835-4 0  9992
2 48098  53.0530 151.9073 0001659  62.6594 297.4564 15.06395845 91234
STARLINK-2428           
1 48099U 21027H   22328.81441359  .00001060  00000+0  90094-4 0  9996
2 48099  53.0540 162.5689 0001662  63.5021 296.6139 15.06389853 91417
